{"type": "FeatureCollection", "features": [ {"type": "Feature", "properties": {"norad_id": 39019, "name": "PLEIADES 1B", "group": "resource", "lat": 81.69461347231118, "lon": -14.309948081765622, "alt_km": 689.5457033342809, "timestamp": "2025-12-19T06:59:43.560951+00:00", "meta": {"OBJECT_NAME": "PLEIADES 1B", "OBJECT_ID": "2012-068A", "EPOCH": "2025-12-18T22:21:31.392576", "MEAN_MOTION": 14.58558121, "ECCENTRICITY": 0.00011701, "INCLINATION": 98.1793, "RA_OF_ASC_NODE": 65.4859, "ARG_OF_PERICENTER": 85.0454, "MEAN_ANOMALY": 275.0879, "EPHEMERIS_TYPE": 0, "CLASSIFICATION_TYPE": "U", "NORAD_CAT_ID": 39019, "ELEMENT_SET_NO": 999, "REV_AT_EPOCH": 69457, "BSTAR": 6.8252755e-05, "MEAN_MOTION_DOT": 2.72e-06, "MEAN_MOTION_DDOT": 0}, "tle": {"line1": "1 39019U 12068A   25352.93161334  .00000272  00000+0  68253-4 0  9994", "line2": "2 39019  98.1793  65.4859 0001170  85.0454 275.0879 14.58558121694572"}}, "geometry": {"type": "Point", "coordinates": [-14.309948081765622, 81.69461347231118]}}, {"type": "Feature", "properties": {"norad_id": 39030, "name": "GOKTURK 2", "group": "resource", "lat": -21.968254066258126, "lon": -162.25366936911286, "alt_km": 650.1186317989004, "timestamp": "2025-12-19T06:59:43.560961+00:00", "meta": {"OBJECT_NAME": "GOKTURK 2", "OBJECT_ID": "2012-073A", "EPOCH": "2025-12-18T22:57:24.663744", "MEAN_MOTION": 14.75300607, "ECCENTRICITY": 0.00012024, "INCLINATION": 97.689, "RA_OF_ASC_NODE": 194.304, "ARG_OF_PERICENTER": 108.8295, "MEAN_ANOMALY": 251.3046, "EPHEMERIS_TYPE": 0, "CLASSIFICATION_TYPE": "U", "NORAD_CAT_ID": 39030, "ELEMENT_SET_NO": 999, "REV_AT_EPOCH": 69793, "BSTAR": 0.00010687848, "MEAN_MOTION_DOT": 6.77e-06, "MEAN_MOTION_DDOT": 0}, "tle": {"line1": "1 39030U 12073A   25352.95653546  .00000677  00000+0  10688-3 0  9993", "line2": "2 39030  97.6890 194.3040 0001202 108.8295 251.3046 14.75300607697933"}}, "geometry": {"type": "Point", "coordinates": [-162.25366936911286, -21.968254066258126]}}, {"type": "Feature", "properties": {"norad_id": 39084, "name": "LANDSAT 8", "group": "resource", "lat": -44.202146483696566, "lon": -126.80011527808391, "alt_km": 709.7700701119966, "timestamp": "2025-12-19T06:59:43.560972+00:00", "meta": {"OBJECT_NAME": "LANDSAT 8", "OBJECT_ID": "2013-008A", "EPOCH": "2025-12-18T21:43:37.513920", "MEAN_MOTION": 14.5710876, "ECCENTRICITY": 0.00010841, "INCLINATION": 98.2066, "RA_OF_ASC_NODE": 60.8876, "ARG_OF_PERICENTER": 89.425, "MEAN_ANOMALY": 270.7073, "EPHEMERIS_TYPE": 0, "CLASSIFICATION_TYPE": "U", "NORAD_CAT_ID": 39084, "ELEMENT_SET_NO": 999, "REV_AT_EPOCH": 67164, "BSTAR": 8.1699608e-05, "MEAN_MOTION_DOT": 3.23e-06, "MEAN_MOTION_DDOT": 0}, "tle": {"line1": "1 39084U 13008A   25352.90529530  .00000323  00000+0  81700-4 0  9993", "line2": "2 39084  98.2066  60.8876 0001084  89.4250 270.7073 14.57108760671642"}}, "geometry": {"type": "Point", "coordinates": [-126.80011527808391, -44.202146483696566]}}, {"type": "Feature", "properties": {"norad_id": 39086, "name": "SARAL", "group": "resource", "lat": -3.254615872214857, "lon": 177.62640438982402, "alt_km": 786.214486828313, "timestamp": "2025-12-19T06:59:43.560982+00:00", "meta": {"OBJECT_NAME": "SARAL", "OBJECT_ID": "2013-009A", "EPOCH": "2025-12-18T22:37:49.824192", "MEAN_MOTION": 14.32759159, "ECCENTRICITY": 0.00029457, "INCLINATION": 98.5502, "RA_OF_ASC_NODE": 176.7924, "ARG_OF_PERICENTER": 97.152, "MEAN_ANOMALY": 262.9999, "EPHEMERIS_TYPE": 0, "CLASSIFICATION_TYPE": "U", "NORAD_CAT_ID": 39086, "ELEMENT_SET_NO": 999, "REV_AT_EPOCH": 66979, "BSTAR": 5.1814087e-05, "MEAN_MOTION_DOT": 9.7e-07, "MEAN_MOTION_DDOT": 0}, "tle": {"line1": "1 39086U 13009A   25352.94293778  .00000097  00000+0  51814-4 0  9993", "line2": "2 39086  98.5502 176.7924 0002945  97.1520 262.9999 14.32759159669796"}}, "geometry": {"type": "Point", "coordinates": [177.62640438982402, -3.254615872214857]}}, {"type": "Feature", "properties": {"norad_id": 39150, "name": "GAOFEN-1", "group": "resource", "lat": 80.76770545133628, "lon": 4.761167388937026, "alt_km": 622.5239212964825, "timestamp": "2025-12-19T06:59:43.560992+00:00", "meta": {"OBJECT_NAME": "GAOFEN-1", "OBJECT_ID": "2013-018A", "EPOCH": "2025-12-18T22:28:44.043168", "MEAN_MOTION": 14.76543912, "ECCENTRICITY": 0.00185081, "INCLINATION": 97.9326, "RA_OF_ASC_NODE": 63.4868, "ARG_OF_PERICENTER": 123.9797, "MEAN_ANOMALY": 236.3175, "EPHEMERIS_TYPE": 0, "CLASSIFICATION_TYPE": "U", "NORAD_CAT_ID": 39150, "ELEMENT_SET_NO": 999, "REV_AT_EPOCH": 68164, "BSTAR": 6.7107809e-05, "MEAN_MOTION_DOT": 4.18e-06, "MEAN_MOTION_DDOT": 0}, "tle": {"line1": "1 39150U 13018A   25352.93662087  .00000418  00000+0  67108-4 0  9997", "line2": "2 39150  97.9326  63.4868 0018508 123.9797 236.3175 14.76543912681645"}}, "geometry": {"type": "Point", "coordinates": [4.761167388937026, 80.76770545133628]}}, {"type": "Feature", "properties": {"norad_id": 39160, "name": "VNREDSAT 1", "group": "resource", "lat": -53.72309289859066, "lon": -142.62086161891264, "alt_km": 685.0820278536194, "timestamp": "2025-12-19T06:59:43.561002+00:00", "meta": {"OBJECT_NAME": "VNREDSAT 1", "OBJECT_ID": "2013-021B", "EPOCH": "2025-12-18T23:22:17.487264", "MEAN_MOTION": 14.64931522, "ECCENTRICITY": 0.0001212, "INCLINATION": 97.9373, "RA_OF_ASC_NODE": 48.0307, "ARG_OF_PERICENTER": 79.7089, "MEAN_ANOMALY": 280.4251, "EPHEMERIS_TYPE": 0, "CLASSIFICATION_TYPE": "U", "NORAD_CAT_ID": 39160, "ELEMENT_SET_NO": 999, "REV_AT_EPOCH": 67390, "BSTAR": 9.985309e-05, "MEAN_MOTION_DOT": 4.89e-06, "MEAN_MOTION_DDOT": 0}, "tle": {"line1": "1 39160U 13021B   25352.97381351  .00000489  00000+0  99853-4 0  9998", "line2": "2 39160  97.9373  48.0307 0001212  79.7089 280.4251 14.64931522673901"}}, "geometry": {"type": "Point", "coordinates": [-142.62086161891264, -53.72309289859066]}}, {"type": "Feature", "properties": {"norad_id": 39227, "name": "ARIRANG-5 (KOMPSAT-5)", "group": "resource", "lat": 14.593879287547969, "lon": -0.5027628958720913, "alt_km": 555.3401979874407, "timestamp": "2025-12-19T06:59:43.561012+00:00", "meta": {"OBJECT_NAME": "ARIRANG-5 (KOMPSAT-5)", "OBJECT_ID": "2013-042A", "EPOCH": "2025-12-18T23:52:45.249024", "MEAN_MOTION": 15.045345, "ECCENTRICITY": 0.0003448, "INCLINATION": 97.6148, "RA_OF_ASC_NODE": 177.2089, "ARG_OF_PERICENTER": 39.3205, "MEAN_ANOMALY": 320.8271, "EPHEMERIS_TYPE": 0, "CLASSIFICATION_TYPE": "U", "NORAD_CAT_ID": 39227, "ELEMENT_SET_NO": 999, "REV_AT_EPOCH": 67676, "BSTAR": 0.00018294696, "MEAN_MOTION_DOT": 2.503e-05, "MEAN_MOTION_DDOT": 0}, "tle": {"line1": "1 39227U 13042A   25352.99496816  .00002503  00000+0  18295-3 0  9999", "line2": "2 39227  97.6148 177.2089 0003448  39.3205 320.8271 15.04534500676767"}}, "geometry": {"type": "Point", "coordinates": [-0.5027628958720913, 14.593879287547969]}}, {"type": "Feature", "properties": {"norad_id": 39418, "name": "SKYSAT-A", "group": "resource", "lat": -14.338807747222758, "lon": 45.207594467597474, "alt_km": 545.8241686326801, "timestamp": "2025-12-19T06:59:43.561023+00:00", "meta": {"OBJECT_NAME": "SKYSAT-A", "OBJECT_ID": "2013-066C", "EPOCH": "2025-12-18T23:06:57.800736", "MEAN_MOTION": 15.11647088, "ECCENTRICITY": 0.00211655, "INCLINATION": 97.4101, "RA_OF_ASC_NODE": 42.9828, "ARG_OF_PERICENTER": 214.0109, "MEAN_ANOMALY": 145.9767, "EPHEMERIS_TYPE": 0, "CLASSIFICATION_TYPE": "U", "NORAD_CAT_ID": 39418, "ELEMENT_SET_NO": 999, "REV_AT_EPOCH": 66124, "BSTAR": 0.00019680502, "MEAN_MOTION_DOT": 3.299e-05, "MEAN_MOTION_DDOT": 0}, "tle": {"line1": "1 39418U 13066C   25352.96316899  .00003299  00000+0  19681-3 0  9999", "line2": "2 39418  97.4101  42.9828 0021165 214.0109 145.9767 15.11647088661243"}}, "geometry": {"type": "Point", "coordinates": [45.207594467597474, -14.338807747222758]}}, {"type": "Feature", "properties": {"norad_id": 39419, "name": "DUBAISAT-2", "group": "resource", "lat": 50.78725706245748, "lon": -25.724006666763525, "alt_km": 539.27037178711, "timestamp": "2025-12-19T06:59:43.561033+00:00", "meta": {"OBJECT_NAME": "DUBAISAT-2", "OBJECT_ID": "2013-066D", "EPOCH": "2025-12-18T22:48:28.867104", "MEAN_MOTION": 15.08414359, "ECCENTRICITY": 0.00099912, "INCLINATION": 97.4443, "RA_OF_ASC_NODE": 343.1666, "ARG_OF_PERICENTER": 298.1141, "MEAN_ANOMALY": 61.9077, "EPHEMERIS_TYPE": 0, "CLASSIFICATION_TYPE": "U", "NORAD_CAT_ID": 39419, "ELEMENT_SET_NO": 999, "REV_AT_EPOCH": 65920, "BSTAR": 0.00022718721, "MEAN_MOTION_DOT": 3.477e-05, "MEAN_MOTION_DDOT": 0}, "tle": {"line1": "1 39419U 13066D   25352.95033411  .00003477  00000+0  22719-3 0  9999", "line2": "2 39419  97.4443 343.1666 0009991 298.1141  61.9077 15.08414359659204"}}, "geometry": {"type": "Point", "coordinates": [-25.724006666763525, 50.78725706245748]}}, {"type": "Feature", "properties": {"norad_id": 39574, "name": "GPM-CORE", "group": "resource", "lat": -19.059826604715077, "lon": -178.54762737212693, "alt_km": 437.0235543213321, "timestamp": "2025-12-19T06:59:43.561043+00:00", "meta": {"OBJECT_NAME": "GPM-CORE", "OBJECT_ID": "2014-009C", "EPOCH": "2025-12-18T21:45:46.524672", "MEAN_MOTION": 15.44556333, "ECCENTRICITY": 0.00094779, "INCLINATION": 64.9721, "RA_OF_ASC_NODE": 192.0298, "ARG_OF_PERICENTER": 247.4423, "MEAN_ANOMALY": 112.5715, "EPHEMERIS_TYPE": 0, "CLASSIFICATION_TYPE": "U", "NORAD_CAT_ID": 39574, "ELEMENT_SET_NO": 999, "REV_AT_EPOCH": 66996, "BSTAR": 0.00014108517, "MEAN_MOTION_DOT": 6.346e-05, "MEAN_MOTION_DDOT": 0}, "tle": {"line1": "1 39574U 14009C   25352.90678848  .00006346  00000+0  14109-3 0  9995", "line2": "2 39574  64.9721 192.0298 0009477 247.4423 112.5715 15.44556333669960"}}, "geometry": {"type": "Point", "coordinates": [-178.54762737212693, -19.059826604715077]}}]}